[{"OBJECT_NAME":"ISS OBJECT XY","OBJECT_ID":"1998-067XY","EPOCH":"2026-04-28T09:14:58.217856","MEAN_MOTION":15.74892995,"ECCENTRICITY":0.0008206,"INCLINATION":51.6237,"RA_OF_ASC_NODE":173.714,"ARG_OF_PERICENTER":3.5364,"MEAN_ANOMALY":356.5692,"EPHEMERIS_TYPE":0,"CLASSIFICATION_TYPE":"U","NORAD_CAT_ID":66912,"ELEMENT_SET_NO":999,"REV_AT_EPOCH":2295,"BSTAR":0.00086314,"MEAN_MOTION_DOT":0.00132204,"MEAN_MOTION_DDOT":0},{"OBJECT_NAME":"KNACKSAT-2","OBJECT_ID":"1998-067XZ","EPOCH":"2026-04-28T10:33:59.231232","MEAN_MOTION":15.5582478,"ECCENTRICITY":0.0012529,"INCLINATION":51.6295,"RA_OF_ASC_NODE":183.8755,"ARG_OF_PERICENTER":13.5417,"MEAN_ANOMALY":346.5908,"EPHEMERIS_TYPE":0,"CLASSIFICATION_TYPE":"U","NORAD_CAT_ID":67683,"ELEMENT_SET_NO":999,"REV_AT_EPOCH":1252,"BSTAR":0.00053648,"MEAN_MOTION_DOT":0.00037603,"MEAN_MOTION_DDOT":0},{"OBJECT_NAME":"CORAL","OBJECT_ID":"1998-067YA","EPOCH":"2026-04-28T09:17:31.617600","MEAN_MOTION":15.63158607,"ECCENTRICITY":0.0016469,"INCLINATION":51.6269,"RA_OF_ASC_NODE":182.0153,"ARG_OF_PERICENTER":7.2622,"MEAN_ANOMALY":352.8608,"EPHEMERIS_TYPE":0,"CLASSIFICATION_TYPE":"U","NORAD_CAT_ID":67684,"ELEMENT_SET_NO":999,"REV_AT_EPOCH":1254,"BSTAR":0.0010238,"MEAN_MOTION_DOT":0.00096591,"MEAN_MOTION_DDOT":0},{"OBJECT_NAME":"GXIBA-1","OBJECT_ID":"1998-067YB","EPOCH":"2026-04-28T20:46:40.044000","MEAN_MOTION":15.56711626,"ECCENTRICITY":0.0014475,"INCLINATION":51.6295,"RA_OF_ASC_NODE":181.467,"ARG_OF_PERICENTER":12.1984,"MEAN_ANOMALY":347.9355,"EPHEMERIS_TYPE":0,"CLASSIFICATION_TYPE":"U","NORAD_CAT_ID":67685,"ELEMENT_SET_NO":999,"REV_AT_EPOCH":1259,"BSTAR":0.0005771,"MEAN_MOTION_DOT":0.00041927,"MEAN_MOTION_DDOT":0},{"OBJECT_NAME":"UITMSAT-2","OBJECT_ID":"1998-067YC","EPOCH":"2026-04-28T10:33:22.790304","MEAN_MOTION":15.58351991,"ECCENTRICITY":0.001148,"INCLINATION":51.6294,"RA_OF_ASC_NODE":183.1258,"ARG_OF_PERICENTER":352.6634,"MEAN_ANOMALY":7.4189,"EPHEMERIS_TYPE":0,"CLASSIFICATION_TYPE":"U","NORAD_CAT_ID":67686,"ELEMENT_SET_NO":999,"REV_AT_EPOCH":1253,"BSTAR":0.00070366,"MEAN_MOTION_DOT":0.00054498,"MEAN_MOTION_DDOT":0},{"OBJECT_NAME":"HMU-SAT2","OBJECT_ID":"1998-067YD","EPOCH":"2026-04-28T10:15:14.359392","MEAN_MOTION":15.56328354,"ECCENTRICITY":0.001053,"INCLINATION":51.6301,"RA_OF_ASC_NODE":183.7924,"ARG_OF_PERICENTER":353.669,"MEAN_ANOMALY":6.4167,"EPHEMERIS_TYPE":0,"CLASSIFICATION_TYPE":"U","NORAD_CAT_ID":67687,"ELEMENT_SET_NO":999,"REV_AT_EPOCH":1244,"BSTAR":0.00058664,"MEAN_MOTION_DOT":0.00041929,"MEAN_MOTION_DDOT":0},{"OBJECT_NAME":"LEOPARD","OBJECT_ID":"1998-067YE","EPOCH":"2026-04-28T09:27:40.271040","MEAN_MOTION":15.57586547,"ECCENTRICITY":0.0011177,"INCLINATION":51.6295,"RA_OF_ASC_NODE":183.5736,"ARG_OF_PERICENTER":352.8302,"MEAN_ANOMALY":7.2529,"EPHEMERIS_TYPE":0,"CLASSIFICATION_TYPE":"U","NORAD_CAT_ID":67688,"ELEMENT_SET_NO":999,"REV_AT_EPOCH":1244,"BSTAR":0.00064339,"MEAN_MOTION_DOT":0.00048318,"MEAN_MOTION_DDOT":0},{"OBJECT_NAME":"CREW DRAGON 12","OBJECT_ID":"2026-031A","EPOCH":"2026-04-28T15:38:17.094336","MEAN_MOTION":15.49006627,"ECCENTRICITY":0.0007088,"INCLINATION":51.632,"RA_OF_ASC_NODE":185.2859,"ARG_OF_PERICENTER":1.203,"MEAN_ANOMALY":358.8974,"EPHEMERIS_TYPE":0,"CLASSIFICATION_TYPE":"U","NORAD_CAT_ID":67796,"ELEMENT_SET_NO":999,"REV_AT_EPOCH":56424,"BSTAR":0.00013886,"MEAN_MOTION_DOT":7.212e-5,"MEAN_MOTION_DDOT":0},{"OBJECT_NAME":"PROGRESS-MS 33","OBJECT_ID":"2026-058A","EPOCH":"2026-04-28T15:38:17.094336","MEAN_MOTION":15.49006627,"ECCENTRICITY":0.0007088,"INCLINATION":51.632,"RA_OF_ASC_NODE":185.2859,"ARG_OF_PERICENTER":1.203,"MEAN_ANOMALY":358.8974,"EPHEMERIS_TYPE":0,"CLASSIFICATION_TYPE":"U","NORAD_CAT_ID":68319,"ELEMENT_SET_NO":999,"REV_AT_EPOCH":575,"BSTAR":0.00013886,"MEAN_MOTION_DOT":7.212e-5,"MEAN_MOTION_DDOT":0},{"OBJECT_NAME":"CYGNUS NG-24","OBJECT_ID":"2026-079A","EPOCH":"2026-04-28T04:47:58.358400","MEAN_MOTION":15.49001185,"ECCENTRICITY":0.00070642,"INCLINATION":51.632,"RA_OF_ASC_NODE":187.5201,"ARG_OF_PERICENTER":359.4554,"MEAN_ANOMALY":0.6426,"EPHEMERIS_TYPE":0,"CLASSIFICATION_TYPE":"U","NORAD_CAT_ID":68689,"ELEMENT_SET_NO":999,"REV_AT_EPOCH":265,"BSTAR":0.00015976466,"MEAN_MOTION_DOT":8.365e-5,"MEAN_MOTION_DDOT":0},{"OBJECT_NAME":"PROGRESS-MS 34","OBJECT_ID":"2026-093A","EPOCH":"2026-04-28T04:47:58.358400","MEAN_MOTION":15.49001185,"ECCENTRICITY":0.00070642,"INCLINATION":51.632,"RA_OF_ASC_NODE":187.5201,"ARG_OF_PERICENTER":359.4554,"MEAN_ANOMALY":0.6426,"EPHEMERIS_TYPE":0,"CLASSIFICATION_TYPE":"U","NORAD_CAT_ID":68837,"ELEMENT_SET_NO":999,"REV_AT_EPOCH":15,"BSTAR":0.00015976466,"MEAN_MOTION_DOT":8.365e-5,"MEAN_MOTION_DDOT":0}]
