ISS OBJECT XY           
1 66912U 98067XY  26118.38539604  .00132204  00000+0  86314-3 0  9996
2 66912  51.6237 173.7140 0008206   3.5364 356.5692 15.74892995 22953
KNACKSAT-2              
1 67683U 98067XZ  26118.44026888  .00037603  00000+0  53648-3 0  9995
2 67683  51.6295 183.8755 0012529  13.5417 346.5908 15.55824780 12527
CORAL                   
1 67684U 98067YA  26118.38717150  .00096591  00000+0  10238-2 0  9996
2 67684  51.6269 182.0153 0016469   7.2622 352.8608 15.63158607 12543
GXIBA-1                 
1 67685U 98067YB  26118.86574125  .00041927  00000+0  57710-3 0  9993
2 67685  51.6295 181.4670 0014475  12.1984 347.9355 15.56711626 12598
UITMSAT-2               
1 67686U 98067YC  26118.43984711  .00054498  00000+0  70366-3 0  9992
2 67686  51.6294 183.1258 0011480 352.6634   7.4189 15.58351991 12530
HMU-SAT2                
1 67687U 98067YD  26118.42724953  .00041929  00000+0  58664-3 0  9994
2 67687  51.6301 183.7924 0010530 353.6690   6.4167 15.56328354 12444
LEOPARD                 
1 67688U 98067YE  26118.39421610  .00048318  00000+0  64339-3 0  9990
2 67688  51.6295 183.5736 0011177 352.8302   7.2529 15.57586547 12447
CREW DRAGON 12          
1 67796U 26031A   26118.65158674  .00007212  00000+0  13886-3 0  9997
2 67796  51.6320 185.2859 0007088   1.2030 358.8974 15.49006627564246
PROGRESS-MS 33          
1 68319U 26058A   26118.65158674  .00007212  00000+0  13886-3 0  9998
2 68319  51.6320 185.2859 0007088   1.2030 358.8974 15.49006627  5754
CYGNUS NG-24            
1 68689U 26079A   26118.19998100  .00008365  00000+0  15976-3 0  9998
2 68689  51.6320 187.5201 0007064 359.4554   0.6426 15.49001185  2657
PROGRESS-MS 34          
1 68837U 26093A   26118.19998100  .00008365  00000+0  15976-3 0  9999
2 68837  51.6320 187.5201 0007064 359.4554   0.6426 15.49001185   155
